{
    "links": {
        "self": "http://www.neowsapp.com/rest/v1/neo/3248699?api_key=iIulBulltgU6a56xZRHN4H3l9WmuAYTsLGpBGhQ2"
    },
    "id": "3248699",
    "neo_reference_id": "3248699",
    "name": "(2004 OD4)",
    "designation": "2004 OD4",
    "nasa_jpl_url": "http://ssd.jpl.nasa.gov/sbdb.cgi?sstr=3248699",
    "absolute_magnitude_h": 27.0,
    "estimated_diameter": {
        "kilometers": {
            "estimated_diameter_min": 0.0105816886,
            "estimated_diameter_max": 0.023661375
        },
        "meters": {
            "estimated_diameter_min": 10.5816885933,
            "estimated_diameter_max": 23.6613750114
        },
        "miles": {
            "estimated_diameter_min": 0.0065751544,
            "estimated_diameter_max": 0.0147024923
        },
        "feet": {
            "estimated_diameter_min": 34.7168272045,
            "estimated_diameter_max": 77.6291855923
        }
    },
    "is_potentially_hazardous_asteroid": false,
    "close_approach_data": [
        {
            "close_approach_date": "2004-07-16",
            "close_approach_date_full": "2004-Jul-16 01:01",
            "epoch_date_close_approach": 1089939660000,
            "relative_velocity": {
                "kilometers_per_second": "9.6943404678",
                "kilometers_per_hour": "34899.6256840005",
                "miles_per_hour": "21685.2701923724"
            },
            "miss_distance": {
                "astronomical": "0.0028403897",
                "lunar": "1.1049115933",
                "kilometers": "424916.249089939",
                "miles": "264030.7139175982"
            },
            "orbiting_body": "Moon"
        },
        {
            "close_approach_date": "2004-07-16",
            "close_approach_date_full": "2004-Jul-16 05:10",
            "epoch_date_close_approach": 1089954600000,
            "relative_velocity": {
                "kilometers_per_second": "8.887574045",
                "kilometers_per_hour": "31995.2665621333",
                "miles_per_hour": "19880.6143813433"
            },
            "miss_distance": {
                "astronomical": "0.0011074637",
                "lunar": "0.4308033793",
                "kilometers": "165674.210622319",
                "miles": "102945.1808492422"
            },
            "orbiting_body": "Earth"
        },
        {
            "close_approach_date": "2007-04-22",
            "close_approach_date_full": "2007-Apr-22 18:57",
            "epoch_date_close_approach": 1177268220000,
            "relative_velocity": {
                "kilometers_per_second": "19.7316614747",
                "kilometers_per_hour": "71033.9813089866",
                "miles_per_hour": "44137.7535527978"
            },
            "miss_distance": {
                "astronomical": "0.3813419988",
                "lunar": "148.3420375332",
                "kilometers": "57047950.762022556",
                "miles": "35447952.8601050328"
            },
            "orbiting_body": "Earth"
        }
    ],
    "orbital_data": {
        "orbit_id": "10",
        "orbit_determination_date": "2017-04-06 09:12:33",
        "first_observation_date": "2004-07-17",
        "last_observation_date": "2004-07-21",
        "data_arc_in_days": 4,
        "observations_used": 33,
        "orbit_uncertainty": "8",
        "minimum_orbit_intersection": ".000990511",
        "jupiter_tisserand_invariant": "3.617",
        "epoch_osculation": "2453205.5",
        "eccentricity": ".5161912468565655",
        "semi_major_axis": "2.042892313272501",
        "inclination": "4.365246187162511",
        "ascending_node_longitude": "294.7494010211813",
        "orbital_period": "1066.514190573975",
        "perihelion_distance": ".9883691828906754",
        "perihelion_argument": "335.9393045109589",
        "aphelion_distance": "3.097415443654326",
        "perihelion_time": "2453183.505048598444",
        "mean_anomaly": "7.424357382716833",
        "mean_motion": ".3375482512860477",
        "equinox": "J2000",
        "orbit_class": {
            "orbit_class_type": "APO",
            "orbit_class_description": "Near-Earth asteroid orbits which cross the Earth’s orbit similar to that of 1862 Apollo",
            "orbit_class_range": "a (semi-major axis) > 1.0 AU; q (perihelion) < 1.017 AU"
        }
    },
    "is_sentry_object": false
}